CCSDS_OMM_VERS = 2.0
CREATION_DATE  = 
ORIGINATOR     = 

OBJECT_NAME    = STARLINK-36864
OBJECT_ID      = 2026-041F
CENTER_NAME    = EARTH
REF_FRAME      = TEME
TIME_SYSTEM    = UTC
MEAN_ELEMENT_THEORY = SGP/SGP4

EPOCH          = 2026-03-20T07:08:04.547040
MEAN_MOTION    = 15.75256329
ECCENTRICITY   = .00009638
INCLINATION    = 53.1600
RA_OF_ASC_NODE = 9.1586
ARG_OF_PERICENTER = 105.6169
MEAN_ANOMALY   = 254.4958

EPHEMERIS_TYPE = 0
CLASSIFICATION_TYPE = U
NORAD_CAT_ID   = 68045
ELEMENT_SET_NO = 999
REV_AT_EPOCH   = 289
BSTAR          = .51314116E-3
MEAN_MOTION_DOT = .78814E-3
MEAN_MOTION_DDOT = 0

CCSDS_OMM_VERS = 2.0
CREATION_DATE  = 
ORIGINATOR     = 

OBJECT_NAME    = STARLINK-36321
OBJECT_ID      = 2026-041G
CENTER_NAME    = EARTH
REF_FRAME      = TEME
TIME_SYSTEM    = UTC
MEAN_ELEMENT_THEORY = SGP/SGP4

EPOCH          = 2026-03-20T12:42:51.834240
MEAN_MOTION    = 15.81014966
ECCENTRICITY   = .00012979
INCLINATION    = 53.1601
RA_OF_ASC_NODE = 7.7555
ARG_OF_PERICENTER = 95.8386
MEAN_ANOMALY   = 264.2785

EPHEMERIS_TYPE = 0
CLASSIFICATION_TYPE = U
NORAD_CAT_ID   = 68046
ELEMENT_SET_NO = 999
REV_AT_EPOCH   = 293
BSTAR          = .19548712E-2
MEAN_MOTION_DOT = .406505E-2
MEAN_MOTION_DDOT = 0

CCSDS_OMM_VERS = 2.0
CREATION_DATE  = 
ORIGINATOR     = 

OBJECT_NAME    = STARLINK-36181
OBJECT_ID      = 2026-041H
CENTER_NAME    = EARTH
REF_FRAME      = TEME
TIME_SYSTEM    = UTC
MEAN_ELEMENT_THEORY = SGP/SGP4

EPOCH          = 2026-03-20T09:41:51.952992
MEAN_MOTION    = 15.80980125
ECCENTRICITY   = .00006079
INCLINATION    = 53.1601
RA_OF_ASC_NODE = 8.3932
ARG_OF_PERICENTER = 96.0375
MEAN_ANOMALY   = 264.0717

EPHEMERIS_TYPE = 0
CLASSIFICATION_TYPE = U
NORAD_CAT_ID   = 68047
ELEMENT_SET_NO = 999
REV_AT_EPOCH   = 291
BSTAR          = .13337182E-2
MEAN_MOTION_DOT = .272353E-2
MEAN_MOTION_DDOT = 0

CCSDS_OMM_VERS = 2.0
CREATION_DATE  = 
ORIGINATOR     = 

OBJECT_NAME    = STARLINK-36318
OBJECT_ID      = 2026-041J
CENTER_NAME    = EARTH
REF_FRAME      = TEME
TIME_SYSTEM    = UTC
MEAN_ELEMENT_THEORY = SGP/SGP4

EPOCH          = 2026-03-20T10:04:44.204448
MEAN_MOTION    = 15.75292638
ECCENTRICITY   = .00011619
INCLINATION    = 53.1605
RA_OF_ASC_NODE = 8.4997
ARG_OF_PERICENTER = 53.0900
MEAN_ANOMALY   = 307.0226

EPHEMERIS_TYPE = 0
CLASSIFICATION_TYPE = U
NORAD_CAT_ID   = 68048
ELEMENT_SET_NO = 999
REV_AT_EPOCH   = 291
BSTAR          = .11539539E-2
MEAN_MOTION_DOT = .180493E-2
MEAN_MOTION_DDOT = 0

CCSDS_OMM_VERS = 2.0
CREATION_DATE  = 
ORIGINATOR     = 

OBJECT_NAME    = STARLINK-36885
OBJECT_ID      = 2026-041K
CENTER_NAME    = EARTH
REF_FRAME      = TEME
TIME_SYSTEM    = UTC
MEAN_ELEMENT_THEORY = SGP/SGP4

EPOCH          = 2026-03-20T07:01:32.227104
MEAN_MOTION    = 15.75290289
ECCENTRICITY   = .00010731
INCLINATION    = 53.1604
RA_OF_ASC_NODE = 9.1280
ARG_OF_PERICENTER = 96.9445
MEAN_ANOMALY   = 263.1698

EPHEMERIS_TYPE = 0
CLASSIFICATION_TYPE = U
NORAD_CAT_ID   = 68049
ELEMENT_SET_NO = 999
REV_AT_EPOCH   = 289
BSTAR          = .1087962E-2
MEAN_MOTION_DOT = .169902E-2
MEAN_MOTION_DDOT = 0

CCSDS_OMM_VERS = 2.0
CREATION_DATE  = 
ORIGINATOR     = 

OBJECT_NAME    = STARLINK-36945
OBJECT_ID      = 2026-041L
CENTER_NAME    = EARTH
REF_FRAME      = TEME
TIME_SYSTEM    = UTC
MEAN_ELEMENT_THEORY = SGP/SGP4

EPOCH          = 2026-03-20T08:07:35.450400
MEAN_MOTION    = 15.80962691
ECCENTRICITY   = .00007448
INCLINATION    = 53.1601
RA_OF_ASC_NODE = 8.6947
ARG_OF_PERICENTER = 104.6649
MEAN_ANOMALY   = 255.4456

EPHEMERIS_TYPE = 0
CLASSIFICATION_TYPE = U
NORAD_CAT_ID   = 68050
ELEMENT_SET_NO = 999
REV_AT_EPOCH   = 290
BSTAR          = .10212718E-2
MEAN_MOTION_DOT = .206616E-2
MEAN_MOTION_DDOT = 0

CCSDS_OMM_VERS = 2.0
CREATION_DATE  = 
ORIGINATOR     = 

OBJECT_NAME    = STARLINK-35911
OBJECT_ID      = 2026-041M
CENTER_NAME    = EARTH
REF_FRAME      = TEME
TIME_SYSTEM    = UTC
MEAN_ELEMENT_THEORY = SGP/SGP4

EPOCH          = 2026-03-20T06:34:23.626848
MEAN_MOTION    = 15.80993650
ECCENTRICITY   = .0000832
INCLINATION    = 53.1597
RA_OF_ASC_NODE = 9.0022
ARG_OF_PERICENTER = 96.1099
MEAN_ANOMALY   = 264.0018

EPHEMERIS_TYPE = 0
CLASSIFICATION_TYPE = U
NORAD_CAT_ID   = 68051
ELEMENT_SET_NO = 999
REV_AT_EPOCH   = 289
BSTAR          = .15117E-2
MEAN_MOTION_DOT = .310368E-2
MEAN_MOTION_DDOT = 0

CCSDS_OMM_VERS = 2.0
CREATION_DATE  = 
ORIGINATOR     = 

OBJECT_NAME    = STARLINK-35808
OBJECT_ID      = 2026-041N
CENTER_NAME    = EARTH
REF_FRAME      = TEME
TIME_SYSTEM    = UTC
MEAN_ELEMENT_THEORY = SGP/SGP4

EPOCH          = 2026-03-20T12:37:31.012896
MEAN_MOTION    = 15.80782739
ECCENTRICITY   = .00012345
INCLINATION    = 53.1598
RA_OF_ASC_NODE = 7.7288
ARG_OF_PERICENTER = 6.3067
MEAN_ANOMALY   = 353.7971

EPHEMERIS_TYPE = 0
CLASSIFICATION_TYPE = U
NORAD_CAT_ID   = 68052
ELEMENT_SET_NO = 999
REV_AT_EPOCH   = 293
BSTAR          = .43899713E-3
MEAN_MOTION_DOT = .86454E-3
MEAN_MOTION_DDOT = 0

CCSDS_OMM_VERS = 2.0
CREATION_DATE  = 
ORIGINATOR     = 

OBJECT_NAME    = STARLINK-36919
OBJECT_ID      = 2026-041P
CENTER_NAME    = EARTH
REF_FRAME      = TEME
TIME_SYSTEM    = UTC
MEAN_ELEMENT_THEORY = SGP/SGP4

EPOCH          = 2026-03-20T12:36:22.499424
MEAN_MOTION    = 15.81038877
ECCENTRICITY   = .00011687
INCLINATION    = 53.1599
RA_OF_ASC_NODE = 7.7233
ARG_OF_PERICENTER = 93.3610
MEAN_ANOMALY   = 266.7547

EPHEMERIS_TYPE = 0
CLASSIFICATION_TYPE = U
NORAD_CAT_ID   = 68053
ELEMENT_SET_NO = 999
REV_AT_EPOCH   = 293
BSTAR          = .20128602E-2
MEAN_MOTION_DOT = .419701E-2
MEAN_MOTION_DDOT = 0

CCSDS_OMM_VERS = 2.0
CREATION_DATE  = 
ORIGINATOR     = 

OBJECT_NAME    = STARLINK-36924
OBJECT_ID      = 2026-041Q
CENTER_NAME    = EARTH
REF_FRAME      = TEME
TIME_SYSTEM    = UTC
MEAN_ELEMENT_THEORY = SGP/SGP4

EPOCH          = 2026-03-20T08:26:50.086176
MEAN_MOTION    = 15.75278883
ECCENTRICITY   = .00008445
INCLINATION    = 53.1608
RA_OF_ASC_NODE = 8.7844
ARG_OF_PERICENTER = 120.0749
MEAN_ANOMALY   = 240.0356

EPHEMERIS_TYPE = 0
CLASSIFICATION_TYPE = U
NORAD_CAT_ID   = 68054
ELEMENT_SET_NO = 999
REV_AT_EPOCH   = 290
BSTAR          = .72204925E-3
MEAN_MOTION_DOT = .111708E-2
MEAN_MOTION_DDOT = 0

CCSDS_OMM_VERS = 2.0
CREATION_DATE  = 
ORIGINATOR     = 

OBJECT_NAME    = STARLINK-35998
OBJECT_ID      = 2026-041R
CENTER_NAME    = EARTH
REF_FRAME      = TEME
TIME_SYSTEM    = UTC
MEAN_ELEMENT_THEORY = SGP/SGP4

EPOCH          = 2026-03-20T12:35:18.010464
MEAN_MOTION    = 15.80975256
ECCENTRICITY   = .00010683
INCLINATION    = 53.1599
RA_OF_ASC_NODE = 7.7187
ARG_OF_PERICENTER = 66.3083
MEAN_ANOMALY   = 293.8051

EPHEMERIS_TYPE = 0
CLASSIFICATION_TYPE = U
NORAD_CAT_ID   = 68055
ELEMENT_SET_NO = 999
REV_AT_EPOCH   = 293
BSTAR          = .150446E-2
MEAN_MOTION_DOT = .308541E-2
MEAN_MOTION_DDOT = 0

CCSDS_OMM_VERS = 2.0
CREATION_DATE  = 
ORIGINATOR     = 

OBJECT_NAME    = STARLINK-36845
OBJECT_ID      = 2026-041S
CENTER_NAME    = EARTH
REF_FRAME      = TEME
TIME_SYSTEM    = UTC
MEAN_ELEMENT_THEORY = SGP/SGP4

EPOCH          = 2026-03-20T12:33:08.895168
MEAN_MOTION    = 15.81000429
ECCENTRICITY   = .00023025
INCLINATION    = 53.1597
RA_OF_ASC_NODE = 7.7089
ARG_OF_PERICENTER = 64.7296
MEAN_ANOMALY   = 295.3965

EPHEMERIS_TYPE = 0
CLASSIFICATION_TYPE = U
NORAD_CAT_ID   = 68056
ELEMENT_SET_NO = 999
REV_AT_EPOCH   = 293
BSTAR          = .19090081E-2
MEAN_MOTION_DOT = .396197E-2
MEAN_MOTION_DDOT = 0

CCSDS_OMM_VERS = 2.0
CREATION_DATE  = 
ORIGINATOR     = 

OBJECT_NAME    = STARLINK-36954
OBJECT_ID      = 2026-041T
CENTER_NAME    = EARTH
REF_FRAME      = TEME
TIME_SYSTEM    = UTC
MEAN_ELEMENT_THEORY = SGP/SGP4

EPOCH          = 2026-03-20T09:57:43.811424
MEAN_MOTION    = 15.75281927
ECCENTRICITY   = .0001783
INCLINATION    = 53.1605
RA_OF_ASC_NODE = 8.4663
ARG_OF_PERICENTER = 43.4746
MEAN_ANOMALY   = 316.6415

EPHEMERIS_TYPE = 0
CLASSIFICATION_TYPE = U
NORAD_CAT_ID   = 68057
ELEMENT_SET_NO = 999
REV_AT_EPOCH   = 291
BSTAR          = .11105493E-2
MEAN_MOTION_DOT = .173455E-2
MEAN_MOTION_DDOT = 0

CCSDS_OMM_VERS = 2.0
CREATION_DATE  = 
ORIGINATOR     = 

OBJECT_NAME    = STARLINK-36899
OBJECT_ID      = 2026-041U
CENTER_NAME    = EARTH
REF_FRAME      = TEME
TIME_SYSTEM    = UTC
MEAN_ELEMENT_THEORY = SGP/SGP4

EPOCH          = 2026-03-20T06:48:56.328192
MEAN_MOTION    = 15.75284309
ECCENTRICITY   = .0000871
INCLINATION    = 53.1604
RA_OF_ASC_NODE = 9.0679
ARG_OF_PERICENTER = 90.3239
MEAN_ANOMALY   = 269.7881

EPHEMERIS_TYPE = 0
CLASSIFICATION_TYPE = U
NORAD_CAT_ID   = 68058
ELEMENT_SET_NO = 999
REV_AT_EPOCH   = 289
BSTAR          = .86400995E-3
MEAN_MOTION_DOT = .134187E-2
MEAN_MOTION_DDOT = 0

CCSDS_OMM_VERS = 2.0
CREATION_DATE  = 
ORIGINATOR     = 

OBJECT_NAME    = STARLINK-36917
OBJECT_ID      = 2026-041V
CENTER_NAME    = EARTH
REF_FRAME      = TEME
TIME_SYSTEM    = UTC
MEAN_ELEMENT_THEORY = SGP/SGP4

EPOCH          = 2026-03-20T12:00:00.999648
MEAN_MOTION    = 15.75259749
ECCENTRICITY   = .00011921
INCLINATION    = 53.1598
RA_OF_ASC_NODE = 7.8858
ARG_OF_PERICENTER = 81.8566
MEAN_ANOMALY   = 117.3704

EPHEMERIS_TYPE = 0
CLASSIFICATION_TYPE = U
NORAD_CAT_ID   = 68059
ELEMENT_SET_NO = 999
REV_AT_EPOCH   = 411
BSTAR          = -.24526884E-3
MEAN_MOTION_DOT = -.38101E-3
MEAN_MOTION_DDOT = 0

